[{"OBJECT_NAME":"GENMAT-1","OBJECT_ID":"2023-174W","EPOCH":"2026-03-09T18:03:23.351040","MEAN_MOTION":15.32594666,"ECCENTRICITY":0.00074416,"INCLINATION":97.3728,"RA_OF_ASC_NODE":146.8236,"ARG_OF_PERICENTER":169.2515,"MEAN_ANOMALY":190.8888,"EPHEMERIS_TYPE":0,"CLASSIFICATION_TYPE":"U","NORAD_CAT_ID":58276,"ELEMENT_SET_NO":999,"REV_AT_EPOCH":12973,"BSTAR":0.00042157222,"MEAN_MOTION_DOT":0.0001321,"MEAN_MOTION_DDOT":0},{"OBJECT_NAME":"STARLINK-32191","OBJECT_ID":"2024-133P","EPOCH":"2026-03-09T21:26:57.118560","MEAN_MOTION":15.30182582,"ECCENTRICITY":0.00010783,"INCLINATION":53.1608,"RA_OF_ASC_NODE":295.963,"ARG_OF_PERICENTER":82.7515,"MEAN_ANOMALY":277.3608,"EPHEMERIS_TYPE":0,"CLASSIFICATION_TYPE":"U","NORAD_CAT_ID":60314,"ELEMENT_SET_NO":999,"REV_AT_EPOCH":9167,"BSTAR":1.0516186e-5,"MEAN_MOTION_DOT":-4.8e-7,"MEAN_MOTION_DDOT":0}]
